{"type": "FeatureCollection", "features": [ {"type": "Feature", "properties": {"norad_id": 66564, "name": "STARLINK-35358", "group": "last-30-days", "lat": -27.735376213606557, "lon": 3.6396901863131017, "alt_km": 441.3745792255395, "timestamp": "2025-12-26T22:28:04.495548+00:00", "meta": {"OBJECT_NAME": "STARLINK-35358", "OBJECT_ID": "2025-268H", "EPOCH": "2025-12-26T18:00:02.998944", "MEAN_MOTION": 15.4311365, "ECCENTRICITY": 0.0001489, "INCLINATION": 43.0005, "RA_OF_ASC_NODE": 39.0654, "ARG_OF_PERICENTER": 267.5495, "MEAN_ANOMALY": 94.5266, "EPHEMERIS_TYPE": 0, "CLASSIFICATION_TYPE": "U", "NORAD_CAT_ID": 66564, "ELEMENT_SET_NO": 999, "REV_AT_EPOCH": 598, "BSTAR": -0.051563, "MEAN_MOTION_DOT": -0.02072063, "MEAN_MOTION_DDOT": 0}, "tle": {"line1": "1 66564U 25268H   25360.75003471 -.02072063  00000+0 -51563-1 0  9995", "line2": "2 66564  43.0005  39.0654 0001489 267.5495  94.5266 15.43113650  5981"}}, "geometry": {"type": "Point", "coordinates": [3.6396901863131017, -27.735376213606557]}}, {"type": "Feature", "properties": {"norad_id": 66565, "name": "STARLINK-35893", "group": "last-30-days", "lat": -21.139017413515205, "lon": 13.446646497524599, "alt_km": 438.3376379743604, "timestamp": "2025-12-26T22:28:04.495559+00:00", "meta": {"OBJECT_NAME": "STARLINK-35893", "OBJECT_ID": "2025-268J", "EPOCH": "2025-12-26T18:00:02.998944", "MEAN_MOTION": 15.43936504, "ECCENTRICITY": 0.0001476, "INCLINATION": 43.0005, "RA_OF_ASC_NODE": 39.0383, "ARG_OF_PERICENTER": 281.5382, "MEAN_ANOMALY": 91.1027, "EPHEMERIS_TYPE": 0, "CLASSIFICATION_TYPE": "U", "NORAD_CAT_ID": 66565, "ELEMENT_SET_NO": 999, "REV_AT_EPOCH": 598, "BSTAR": -0.048957, "MEAN_MOTION_DOT": -0.02028794, "MEAN_MOTION_DDOT": 0}, "tle": {"line1": "1 66565U 25268J   25360.75003471 -.02028794  00000+0 -48957-1 0  9991", "line2": "2 66565  43.0005  39.0383 0001476 281.5382  91.1027 15.43936504  5987"}}, "geometry": {"type": "Point", "coordinates": [13.446646497524599, -21.139017413515205]}}, {"type": "Feature", "properties": {"norad_id": 66566, "name": "STARLINK-35871", "group": "last-30-days", "lat": -16.40891150125314, "lon": 19.520551911251623, "alt_km": 436.43856969183526, "timestamp": "2025-12-26T22:28:04.495572+00:00", "meta": {"OBJECT_NAME": "STARLINK-35871", "OBJECT_ID": "2025-268K", "EPOCH": "2025-12-26T18:00:02.998944", "MEAN_MOTION": 15.44470341, "ECCENTRICITY": 0.0001502, "INCLINATION": 43.0006, "RA_OF_ASC_NODE": 39.0209, "ARG_OF_PERICENTER": 282.2914, "MEAN_ANOMALY": 97.4527, "EPHEMERIS_TYPE": 0, "CLASSIFICATION_TYPE": "U", "NORAD_CAT_ID": 66566, "ELEMENT_SET_NO": 999, "REV_AT_EPOCH": 604, "BSTAR": -0.048277, "MEAN_MOTION_DOT": -0.02036658, "MEAN_MOTION_DDOT": 0}, "tle": {"line1": "1 66566U 25268K   25360.75003471 -.02036658  00000+0 -48277-1 0  9995", "line2": "2 66566  43.0006  39.0209 0001502 282.2914  97.4527 15.44470341  6040"}}, "geometry": {"type": "Point", "coordinates": [19.520551911251623, -16.40891150125314]}}, {"type": "Feature", "properties": {"norad_id": 66567, "name": "STARLINK-35825", "group": "last-30-days", "lat": 29.626764002690646, "lon": 75.37252770992392, "alt_km": 391.4459938299524, "timestamp": "2025-12-26T22:28:04.495583+00:00", "meta": {"OBJECT_NAME": "STARLINK-35825", "OBJECT_ID": "2025-268L", "EPOCH": "2025-12-24T05:35:52.806912", "MEAN_MOTION": 15.56426808, "ECCENTRICITY": 0.00033868, "INCLINATION": 43.0005, "RA_OF_ASC_NODE": 53.7242, "ARG_OF_PERICENTER": 293.6521, "MEAN_ANOMALY": 66.3986, "EPHEMERIS_TYPE": 0, "CLASSIFICATION_TYPE": "U", "NORAD_CAT_ID": 66567, "ELEMENT_SET_NO": 999, "REV_AT_EPOCH": 641, "BSTAR": 0.0017686293, "MEAN_MOTION_DOT": 0.00130148, "MEAN_MOTION_DDOT": 0}, "tle": {"line1": "1 66567U 25268L   25358.23325008  .00130148  00000+0  17686-2 0  9995", "line2": "2 66567  43.0005  53.7242 0003386 293.6521  66.3986 15.56426808  6419"}}, "geometry": {"type": "Point", "coordinates": [75.37252770992392, 29.626764002690646]}}, {"type": "Feature", "properties": {"norad_id": 66568, "name": "STARLINK-35803", "group": "last-30-days", "lat": -19.654135638292885, "lon": 15.41790238423163, "alt_km": 429.8767217321183, "timestamp": "2025-12-26T22:28:04.495594+00:00", "meta": {"OBJECT_NAME": "STARLINK-35803", "OBJECT_ID": "2025-268M", "EPOCH": "2025-12-26T18:00:02.998944", "MEAN_MOTION": 15.46662899, "ECCENTRICITY": 0.0001438, "INCLINATION": 43.0003, "RA_OF_ASC_NODE": 39.0359, "ARG_OF_PERICENTER": 281.842, "MEAN_ANOMALY": 91.3032, "EPHEMERIS_TYPE": 0, "CLASSIFICATION_TYPE": "U", "NORAD_CAT_ID": 66568, "ELEMENT_SET_NO": 999, "REV_AT_EPOCH": 598, "BSTAR": -0.038053, "MEAN_MOTION_DOT": -0.01731968, "MEAN_MOTION_DDOT": 0}, "tle": {"line1": "1 66568U 25268M   25360.75003471 -.01731968  00000+0 -38053-1 0  9993", "line2": "2 66568  43.0003  39.0359 0001438 281.8420  91.3032 15.46662899  5989"}}, "geometry": {"type": "Point", "coordinates": [15.41790238423163, -19.654135638292885]}}, {"type": "Feature", "properties": {"norad_id": 66569, "name": "STARLINK-35835", "group": "last-30-days", "lat": 0.5937222549093677, "lon": 38.51730349438547, "alt_km": 429.0098455868656, "timestamp": "2025-12-26T22:28:04.495605+00:00", "meta": {"OBJECT_NAME": "STARLINK-35835", "OBJECT_ID": "2025-268N", "EPOCH": "2025-12-26T18:00:02.998944", "MEAN_MOTION": 15.46557103, "ECCENTRICITY": 0.0001433, "INCLINATION": 43, "RA_OF_ASC_NODE": 38.9618, "ARG_OF_PERICENTER": 275.2863, "MEAN_ANOMALY": 128.413, "EPHEMERIS_TYPE": 0, "CLASSIFICATION_TYPE": "U", "NORAD_CAT_ID": 66569, "ELEMENT_SET_NO": 999, "REV_AT_EPOCH": 604, "BSTAR": -0.04577, "MEAN_MOTION_DOT": -0.02071289, "MEAN_MOTION_DDOT": 0}, "tle": {"line1": "1 66569U 25268N   25360.75003471 -.02071289  00000+0 -45770-1 0  9992", "line2": "2 66569  43.0000  38.9618 0001433 275.2863 128.4130 15.46557103  6046"}}, "geometry": {"type": "Point", "coordinates": [38.51730349438547, 0.5937222549093677]}}, {"type": "Feature", "properties": {"norad_id": 66570, "name": "STARLINK-35834", "group": "last-30-days", "lat": 19.482214666008982, "lon": -163.91831706363408, "alt_km": 470.54228354280167, "timestamp": "2025-12-26T22:28:04.495616+00:00", "meta": {"OBJECT_NAME": "STARLINK-35834", "OBJECT_ID": "2025-268P", "EPOCH": "2025-12-26T18:00:02.998944", "MEAN_MOTION": 15.31848048, "ECCENTRICITY": 0.0001212, "INCLINATION": 43.0014, "RA_OF_ASC_NODE": 39.4496, "ARG_OF_PERICENTER": 290.0079, "MEAN_ANOMALY": 273.2764, "EPHEMERIS_TYPE": 0, "CLASSIFICATION_TYPE": "U", "NORAD_CAT_ID": 66570, "ELEMENT_SET_NO": 999, "REV_AT_EPOCH": 598, "BSTAR": -0.071808, "MEAN_MOTION_DOT": -0.02036129, "MEAN_MOTION_DDOT": 0}, "tle": {"line1": "1 66570U 25268P   25360.75003471 -.02036129  00000+0 -71808-1 0  9999", "line2": "2 66570  43.0014  39.4496 0001212 290.0079 273.2764 15.31848048  5981"}}, "geometry": {"type": "Point", "coordinates": [-163.91831706363408, 19.482214666008982]}}, {"type": "Feature", "properties": {"norad_id": 66571, "name": "STARLINK-35836", "group": "last-30-days", "lat": 7.2230470683054895, "lon": -149.4693760627599, "alt_km": 469.6320053631698, "timestamp": "2025-12-26T22:28:04.495630+00:00", "meta": {"OBJECT_NAME": "STARLINK-35836", "OBJECT_ID": "2025-268Q", "EPOCH": "2025-12-26T18:00:02.998944", "MEAN_MOTION": 15.32688485, "ECCENTRICITY": 0.0001155, "INCLINATION": 43.0013, "RA_OF_ASC_NODE": 39.4062, "ARG_OF_PERICENTER": 288.0494, "MEAN_ANOMALY": 293.3235, "EPHEMERIS_TYPE": 0, "CLASSIFICATION_TYPE": "U", "NORAD_CAT_ID": 66571, "ELEMENT_SET_NO": 999, "REV_AT_EPOCH": 609, "BSTAR": -0.070175, "MEAN_MOTION_DOT": -0.02042778, "MEAN_MOTION_DDOT": 0}, "tle": {"line1": "1 66571U 25268Q   25360.75003471 -.02042778  00000+0 -70175-1 0  9993", "line2": "2 66571  43.0013  39.4062 0001155 288.0494 293.3235 15.32688485  6091"}}, "geometry": {"type": "Point", "coordinates": [-149.4693760627599, 7.2230470683054895]}}, {"type": "Feature", "properties": {"norad_id": 66572, "name": "STARLINK-35870", "group": "last-30-days", "lat": -12.797502318414447, "lon": -127.61492361464146, "alt_km": 467.08868288218855, "timestamp": "2025-12-26T22:28:04.495641+00:00", "meta": {"OBJECT_NAME": "STARLINK-35870", "OBJECT_ID": "2025-268R", "EPOCH": "2025-12-26T18:00:02.998944", "MEAN_MOTION": 15.34138788, "ECCENTRICITY": 0.0001097, "INCLINATION": 43.0002, "RA_OF_ASC_NODE": 39.3382, "ARG_OF_PERICENTER": 270.8884, "MEAN_ANOMALY": 339.0975, "EPHEMERIS_TYPE": 0, "CLASSIFICATION_TYPE": "U", "NORAD_CAT_ID": 66572, "ELEMENT_SET_NO": 999, "REV_AT_EPOCH": 609, "BSTAR": -0.066793, "MEAN_MOTION_DOT": -0.02036954, "MEAN_MOTION_DDOT": 0}, "tle": {"line1": "1 66572U 25268R   25360.75003471 -.02036954  00000+0 -66793-1 0  9994", "line2": "2 66572  43.0002  39.3382 0001097 270.8884 339.0975 15.34138788  6098"}}, "geometry": {"type": "Point", "coordinates": [-127.61492361464146, -12.797502318414447]}}, {"type": "Feature", "properties": {"norad_id": 66573, "name": "STARLINK-35650", "group": "last-30-days", "lat": -23.66676609511187, "lon": -113.71171258809484, "alt_km": 465.3295089327494, "timestamp": "2025-12-26T22:28:04.495652+00:00", "meta": {"OBJECT_NAME": "STARLINK-35650", "OBJECT_ID": "2025-268S", "EPOCH": "2025-12-26T18:00:02.998944", "MEAN_MOTION": 15.34975537, "ECCENTRICITY": 0.0001089, "INCLINATION": 43.0011, "RA_OF_ASC_NODE": 39.2968, "ARG_OF_PERICENTER": 268.2121, "MEAN_ANOMALY": 358.3314, "EPHEMERIS_TYPE": 0, "CLASSIFICATION_TYPE": "U", "NORAD_CAT_ID": 66573, "ELEMENT_SET_NO": 999, "REV_AT_EPOCH": 592, "BSTAR": -0.064967, "MEAN_MOTION_DOT": -0.02035408, "MEAN_MOTION_DDOT": 0}, "tle": {"line1": "1 66573U 25268S   25360.75003471 -.02035408  00000+0 -64967-1 0  9999", "line2": "2 66573  43.0011  39.2968 0001089 268.2121 358.3314 15.34975537  5927"}}, "geometry": {"type": "Point", "coordinates": [-113.71171258809484, -23.66676609511187]}}]}